start=new Date('2022-02-03T00:00:00.000Z').valueOf();
sats=[{"EPHEMERIS_TYPE":"0","NORAD_CAT_ID":"45742","REV_AT_EPOCH":"9073","RA_OF_ASC_NODE":"111.4829","GP_ID":"195190030","MEAN_ELEMENT_THEORY":"SGP4","DECAY_DATE":null,"TLE_LINE1":"1 45742U 20038N   22033.89825788  .00000295  00000-0  38692-4 0  9998","FILE":"3290513","OBJECT_TYPE":"PAYLOAD","INCLINATION":"53.0544","SEMIMAJOR_AXIS":"6925.383","TLE_LINE2":"2 45742  53.0544 111.4829 0001367  63.9924 296.1206 15.06388607 90730","RCS_SIZE":"LARGE","MEAN_MOTION_DDOT":"0.0000000000000","COUNTRY_CODE":"US","MEAN_MOTION":"15.06388607","ECCENTRICITY":"0.00013670","CENTER_NAME":"EARTH","ARG_OF_PERICENTER":"63.9924","LAUNCH_DATE":"2020-06-13","PERIAPSIS":"546.302","SITE":"AFETR","OBJECT_NAME":"STARLINK-1481","OBJECT_ID":"2020-038N","MEAN_MOTION_DOT":"0.00000295","BSTAR":"0.00003869200000","MEAN_ANOMALY":"296.1206","TIME_SYSTEM":"UTC","EPOCH":"2022-02-02T21:33:29.480832","REF_FRAME":"TEME","PERIOD":"95.593","ELEMENT_SET_NO":"999","APOAPSIS":"548.195","CLASSIFICATION_TYPE":"U"},{"MEAN_MOTION_DOT":"0.00003484","BSTAR":"0.00025259000000","MEAN_ANOMALY":"309.8015","OBJECT_NAME":"STARLINK-1483","OBJECT_ID":"2020-038P","TIME_SYSTEM":"UTC","EPOCH":"2022-02-02T22:00:00.295776","PERIAPSIS":"545.995","SITE":"AFETR","CLASSIFICATION_TYPE":"U","PERIOD":"95.592","REF_FRAME":"TEME","APOAPSIS":"548.379","ELEMENT_SET_NO":"999","COUNTRY_CODE":"US","MEAN_MOTION_DDOT":"0.0000000000000","ECCENTRICITY":"0.00017210","MEAN_MOTION":"15.06408737","TLE_LINE2":"2 45743  53.0554 111.2538 0001721  50.3126 309.8015 15.06408737 90743","RCS_SIZE":"LARGE","LAUNCH_DATE":"2020-06-13","ARG_OF_PERICENTER":"50.3126","CENTER_NAME":"EARTH","TLE_LINE1":"1 45743U 20038P   22033.91667009  .00003484  00000-0  25259-3 0  9999","DECAY_DATE":null,"FILE":"3290513","SEMIMAJOR_AXIS":"6925.322","INCLINATION":"53.0554","OBJECT_TYPE":"PAYLOAD","NORAD_CAT_ID":"45743","EPHEMERIS_TYPE":"0","GP_ID":"195190280","MEAN_ELEMENT_THEORY":"SGP4","REV_AT_EPOCH":"9074","RA_OF_ASC_NODE":"111.2538"},{"ELEMENT_SET_NO":"999","APOAPSIS":"548.210","REF_FRAME":"TEME","PERIOD":"95.592","CLASSIFICATION_TYPE":"U","SITE":"AFETR","PERIAPSIS":"546.210","EPOCH":"2022-02-02T16:30:56.455488","TIME_SYSTEM":"UTC","OBJECT_NAME":"STARLINK-1500","OBJECT_ID":"2020-038Q","MEAN_MOTION_DOT":"0.00002851","BSTAR":"0.00021024000000","MEAN_ANOMALY":"291.6234","CENTER_NAME":"EARTH","ARG_OF_PERICENTER":"68.4908","LAUNCH_DATE":"2020-06-13","TLE_LINE2":"2 45744  53.0522 112.4316 0001444  68.4908 291.6234 15.06401117 90719","RCS_SIZE":"LARGE","MEAN_MOTION":"15.06401117","ECCENTRICITY":"0.00014440","MEAN_MOTION_DDOT":"0.0000000000000","COUNTRY_CODE":"US","OBJECT_TYPE":"PAYLOAD","INCLINATION":"53.0522","SEMIMAJOR_AXIS":"6925.345","FILE":"3290513","DECAY_DATE":null,"TLE_LINE1":"1 45744U 20038Q   22033.68815342  .00002851  00000-0  21024-3 0  9992","RA_OF_ASC_NODE":"112.4316","REV_AT_EPOCH":"9071","MEAN_ELEMENT_THEORY":"SGP4","GP_ID":"195190532","EPHEMERIS_TYPE":"0","NORAD_CAT_ID":"45744"},{"TIME_SYSTEM":"UTC","EPOCH":"2022-02-02T16:15:00.653760","BSTAR":"0.00077492000000","MEAN_MOTION_DOT":"0.00011286","MEAN_ANOMALY":"294.1225","OBJECT_ID":"2020-038R","OBJECT_NAME":"STARLINK-1503","SITE":"AFETR","PERIAPSIS":"546.169","CLASSIFICATION_TYPE":"U","APOAPSIS":"548.136","ELEMENT_SET_NO":"999","PERIOD":"95.591","REF_FRAME":"TEME","ECCENTRICITY":"0.00014200","MEAN_MOTION":"15.06419999","COUNTRY_CODE":"US","MEAN_MOTION_DDOT":"0.0000000000000","TLE_LINE2":"2 45745  53.0539 112.4901 0001420  65.9913 294.1225 15.06419999 90704","RCS_SIZE":"LARGE","LAUNCH_DATE":"2020-06-13","ARG_OF_PERICENTER":"65.9913","CENTER_NAME":"EARTH","FILE":"3290513","TLE_LINE1":"1 45745U 20038R   22033.67709090  .00011286  00000-0  77492-3 0  9996","DECAY_DATE":null,"INCLINATION":"53.0539","SEMIMAJOR_AXIS":"6925.287","OBJECT_TYPE":"PAYLOAD","NORAD_CAT_ID":"45745","EPHEMERIS_TYPE":"0","MEAN_ELEMENT_THEORY":"SGP4","GP_ID":"195191282","RA_OF_ASC_NODE":"112.4901","REV_AT_EPOCH":"9070"},{"INCLINATION":"53.0528","SEMIMAJOR_AXIS":"6925.375","OBJECT_TYPE":"PAYLOAD","FILE":"3290513","TLE_LINE1":"1 45746U 20038S   22033.69184154 -.00000141  00000-0  94369-5 0  9990","DECAY_DATE":null,"MEAN_ELEMENT_THEORY":"SGP4","GP_ID":"195189531","RA_OF_ASC_NODE":"112.4075","REV_AT_EPOCH":"9070","EPHEMERIS_TYPE":"0","NORAD_CAT_ID":"45746","CLASSIFICATION_TYPE":"U","APOAPSIS":"548.385","ELEMENT_SET_NO":"999","PERIOD":"95.593","REF_FRAME":"TEME","EPOCH":"2022-02-02T16:36:15.109056","TIME_SYSTEM":"UTC","MEAN_MOTION_DOT":"-0.00000141","MEAN_ANOMALY":"295.7823","BSTAR":"0.00000943690000","OBJECT_ID":"2020-038S","OBJECT_NAME":"STARLINK-1504","SITE":"AFETR","PERIAPSIS":"546.095","LAUNCH_DATE":"2020-06-13","ARG_OF_PERICENTER":"64.3337","CENTER_NAME":"EARTH","ECCENTRICITY":"0.00016530","MEAN_MOTION":"15.06391342","COUNTRY_CODE":"US","MEAN_MOTION_DDOT":"0.0000000000000","TLE_LINE2":"2 45746  53.0528 112.4075 0001653  64.3337 295.7823 15.06391342 90708","RCS_SIZE":"LARGE"},{"LAUNCH_DATE":"2020-06-13","ARG_OF_PERICENTER":"60.3508","CENTER_NAME":"EARTH","COUNTRY_CODE":"US","MEAN_MOTION_DDOT":"0.0000000000000","ECCENTRICITY":"0.00014240","MEAN_MOTION":"15.06395256","RCS_SIZE":"LARGE","TLE_LINE2":"2 45747  53.0546 112.9931 0001424  60.3508 299.7623 15.06395256 90695","CLASSIFICATION_TYPE":"U","PERIOD":"95.592","REF_FRAME":"TEME","APOAPSIS":"548.214","ELEMENT_SET_NO":"999","BSTAR":"0.00003979500000","MEAN_MOTION_DOT":"0.00000311","MEAN_ANOMALY":"299.7623","OBJECT_ID":"2020-038T","OBJECT_NAME":"STARLINK-1506","EPOCH":"2022-02-02T13:30:28.403136","TIME_SYSTEM":"UTC","PERIAPSIS":"546.242","SITE":"AFETR","GP_ID":"195160341","MEAN_ELEMENT_THEORY":"SGP4","REV_AT_EPOCH":"9069","RA_OF_ASC_NODE":"112.9931","EPHEMERIS_TYPE":"0","NORAD_CAT_ID":"45747","INCLINATION":"53.0546","SEMIMAJOR_AXIS":"6925.363","OBJECT_TYPE":"PAYLOAD","TLE_LINE1":"1 45747U 20038T   22033.56282874  .00000311  00000-0  39795-4 0  9994","DECAY_DATE":null,"FILE":"3290262"},{"SEMIMAJOR_AXIS":"6925.311","INCLINATION":"53.0514","OBJECT_TYPE":"PAYLOAD","DECAY_DATE":null,"TLE_LINE1":"1 45748U 20038U   22033.61716871 -.00000614  00000-0 -22326-4 0  9990","FILE":"3290513","GP_ID":"195191032","MEAN_ELEMENT_THEORY":"SGP4","REV_AT_EPOCH":"9069","RA_OF_ASC_NODE":"112.7652","EPHEMERIS_TYPE":"0","NORAD_CAT_ID":"45748","CLASSIFICATION_TYPE":"U","REF_FRAME":"TEME","PERIOD":"95.591","ELEMENT_SET_NO":"999","APOAPSIS":"548.199","OBJECT_ID":"2020-038U","OBJECT_NAME":"STARLINK-1507","MEAN_MOTION_DOT":"-0.00000614","MEAN_ANOMALY":"277.0346","BSTAR":"-0.00002232600000","EPOCH":"2022-02-02T14:48:43.376544","TIME_SYSTEM":"UTC","PERIAPSIS":"546.152","SITE":"AFETR","ARG_OF_PERICENTER":"83.0811","LAUNCH_DATE":"2020-06-13","CENTER_NAME":"EARTH","MEAN_MOTION_DDOT":"0.0000000000000","COUNTRY_CODE":"US","MEAN_MOTION":"15.06412277","ECCENTRICITY":"0.00014780","RCS_SIZE":"LARGE","TLE_LINE2":"2 45748  53.0514 112.7652 0001478  83.0811 277.0346 15.06412277 90691"},{"RA_OF_ASC_NODE":"92.9256","REV_AT_EPOCH":"9209","MEAN_ELEMENT_THEORY":"SGP4","GP_ID":"195167100","NORAD_CAT_ID":"45750","EPHEMERIS_TYPE":"0","OBJECT_TYPE":"PAYLOAD","SEMIMAJOR_AXIS":"6925.386","INCLINATION":"53.0541","FILE":"3290335","TLE_LINE1":"1 45750U 20038W   22033.57941896  .00000627  00000-0  61034-4 0  9996","DECAY_DATE":null,"CENTER_NAME":"EARTH","LAUNCH_DATE":"2020-06-13","ARG_OF_PERICENTER":"65.8671","RCS_SIZE":"LARGE","TLE_LINE2":"2 45750  53.0541  92.9256 0001509  65.8671 294.2476 15.06387910 92096","ECCENTRICITY":"0.00015090","MEAN_MOTION":"15.06387910","COUNTRY_CODE":"US","MEAN_MOTION_DDOT":"0.0000000000000","APOAPSIS":"548.296","ELEMENT_SET_NO":"999","PERIOD":"95.593","REF_FRAME":"TEME","CLASSIFICATION_TYPE":"U","SITE":"AFETR","PERIAPSIS":"546.206","TIME_SYSTEM":"UTC","EPOCH":"2022-02-02T13:54:21.798144","BSTAR":"0.00006103400000","MEAN_MOTION_DOT":"0.00000627","MEAN_ANOMALY":"294.2476","OBJECT_NAME":"STARLINK-1391","OBJECT_ID":"2020-038W"},{"OBJECT_TYPE":"PAYLOAD","SEMIMAJOR_AXIS":"6925.321","INCLINATION":"53.0556","FILE":"3290262","DECAY_DATE":null,"TLE_LINE1":"1 45751U 20038X   22033.44303149  .00000310  00000-0  39710-4 0  9991","RA_OF_ASC_NODE":"93.5267","REV_AT_EPOCH":"9096","MEAN_ELEMENT_THEORY":"SGP4","GP_ID":"195159590","NORAD_CAT_ID":"45751","EPHEMERIS_TYPE":"0","ELEMENT_SET_NO":"999","APOAPSIS":"548.054","REF_FRAME":"TEME","PERIOD":"95.592","CLASSIFICATION_TYPE":"U","SITE":"AFETR","PERIAPSIS":"546.318","EPOCH":"2022-02-02T10:37:57.920736","TIME_SYSTEM":"UTC","OBJECT_NAME":"STARLINK-1464","OBJECT_ID":"2020-038X","MEAN_MOTION_DOT":"0.00000310","BSTAR":"0.00003971000000","MEAN_ANOMALY":"305.3561","CENTER_NAME":"EARTH","ARG_OF_PERICENTER":"54.7545","LAUNCH_DATE":"2020-06-13","TLE_LINE2":"2 45751  53.0556  93.5267 0001253  54.7545 305.3561 15.06409011 90965","RCS_SIZE":"LARGE","MEAN_MOTION":"15.06409011","ECCENTRICITY":"0.00012530","MEAN_MOTION_DDOT":"0.0000000000000","COUNTRY_CODE":"US"},{"TLE_LINE2":"2 45752  53.0026 208.5353 0006424 305.2522  54.7897 15.80031373 94387","RCS_SIZE":"LARGE","COUNTRY_CODE":"US","MEAN_MOTION_DDOT":"0.0000000000000","ECCENTRICITY":"0.00064240","MEAN_MOTION":"15.80031373","CENTER_NAME":"EARTH","LAUNCH_DATE":"2020-06-13","ARG_OF_PERICENTER":"305.2522","PERIAPSIS":"326.044","SITE":"AFETR","MEAN_MOTION_DOT":"0.00078859","BSTAR":"0.00041456000000","MEAN_ANOMALY":"54.7897","OBJECT_ID":"2020-038Y","OBJECT_NAME":"STARLINK-1469","TIME_SYSTEM":"UTC","EPOCH":"2022-02-02T18:19:46.148448","PERIOD":"91.137","REF_FRAME":"TEME","APOAPSIS":"334.663","ELEMENT_SET_NO":"999","CLASSIFICATION_TYPE":"U","EPHEMERIS_TYPE":"0","NORAD_CAT_ID":"45752","REV_AT_EPOCH":"9438","RA_OF_ASC_NODE":"208.5353","GP_ID":"195190281","MEAN_ELEMENT_THEORY":"SGP4","TLE_LINE1":"1 45752U 20038Y   22033.76372857  .00078859  00000-0  41456-3 0  9991","DECAY_DATE":null,"FILE":"3290513","OBJECT_TYPE":"PAYLOAD","SEMIMAJOR_AXIS":"6708.489","INCLINATION":"53.0026"}];
